ONEWEB-0331             
1 49198U 21083N   24280.75497208  .00000196  00000+0  46321-3 0  9997
2 49198  87.9055  98.5432 0001427  79.3574 280.7719 13.18686528148507
ONEWEB-0333             
1 49199U 21083P   24280.88314061 -.00000061  00000+0 -20160-3 0  9993
2 49199  87.8867  83.2718 0001683  94.7302 265.4019 13.13470714149743
ONEWEB-0334             
1 49200U 21083Q   24280.78327824  .00000125  00000+0  27548-3 0  9992
2 49200  87.9269  37.4792 0002495 118.5662 241.5722 13.20773022155167
ONEWEB-0335             
1 49201U 21083R   24280.42131408 -.00000126  00000+0 -38045-3 0  9992
2 49201  87.8867  83.3529 0001659  86.1025 274.0294 13.13471563149696
ONEWEB-0336             
1 49202U 21083S   24280.84822445  .00000132  00000+0  32560-3 0  9998
2 49202  87.8866  83.2627 0001505  96.5667 263.5633 13.13471520149740
ONEWEB-0337             
1 49203U 21083T   24280.47672294 -.00000150  00000+0 -44689-3 0  9990
2 49203  87.8869  83.3358 0001595  87.4493 272.6819 13.13469986149695
ONEWEB-0338             
1 49204U 21083U   24280.56308569  .00000177  00000+0  40265-3 0  9995
2 49204  87.9275  37.5130 0002101 102.8583 257.2786 13.20775510155154
ONEWEB-0339             
1 49205U 21083V   24280.41178273 -.00000237  00000+0 -68428-3 0  9997
2 49205  87.8865  83.3417 0001709  88.0778 272.0547 13.13470703149667
